start=new Date('2022-07-04T00:00:00.000Z').valueOf();
sats=[{"COUNTRY_CODE":"US","ARG_OF_PERICENTER":"65.0855","MEAN_ANOMALY":"295.0335","TLE_LINE1":"1 44732U 19074V   22184.55641328  .00000242  00000-0  35184-4 0  9995","GP_ID":"207325693","NORAD_CAT_ID":"44732","CENTER_NAME":"EARTH","MEAN_MOTION_DOT":"0.00000242","EPOCH":"2022-07-03T13:21:14.107392","MEAN_MOTION":"15.06405124","APOAPSIS":"548.535","INCLINATION":"53.0548","SEMIMAJOR_AXIS":"6925.333","MEAN_ELEMENT_THEORY":"SGP4","RCS_SIZE":"LARGE","MEAN_MOTION_DDOT":"0.0000000000000","PERIOD":"95.592","DECAY_DATE":null,"OBJECT_TYPE":"PAYLOAD","SITE":"AFETR","PERIAPSIS":"545.861","LAUNCH_DATE":"2019-11-11","REF_FRAME":"TEME","FILE":"3507188","EPHEMERIS_TYPE":"0","OBJECT_ID":"2019-074V","OBJECT_NAME":"STARLINK-1027","CLASSIFICATION_TYPE":"U","RA_OF_ASC_NODE":"125.1508","TLE_LINE2":"2 44732  53.0548 125.1508 0001931  65.0855 295.0335 15.06405124145726","REV_AT_EPOCH":"14572","ELEMENT_SET_NO":"999","BSTAR":"0.00003518400000","ECCENTRICITY":"0.00019310","TIME_SYSTEM":"UTC"},{"MEAN_ANOMALY":"296.3196","ARG_OF_PERICENTER":"63.8009","COUNTRY_CODE":"US","GP_ID":"207354168","TLE_LINE1":"1 44733U 19074W   22184.88629925  .00000316  00000-0  40144-4 0  9995","MEAN_MOTION_DOT":"0.00000316","NORAD_CAT_ID":"44733","CENTER_NAME":"EARTH","MEAN_ELEMENT_THEORY":"SGP4","SEMIMAJOR_AXIS":"6925.357","MEAN_MOTION":"15.06397306","EPOCH":"2022-07-03T21:16:16.255200","INCLINATION":"53.0540","APOAPSIS":"548.674","SITE":"AFETR","OBJECT_TYPE":"PAYLOAD","DECAY_DATE":null,"RCS_SIZE":"LARGE","MEAN_MOTION_DDOT":"0.0000000000000","PERIOD":"95.592","LAUNCH_DATE":"2019-11-11","PERIAPSIS":"545.770","OBJECT_NAME":"STARLINK-1028","OBJECT_ID":"2019-074W","EPHEMERIS_TYPE":"0","CLASSIFICATION_TYPE":"U","REF_FRAME":"TEME","FILE":"3507292","TIME_SYSTEM":"UTC","RA_OF_ASC_NODE":"103.6713","TLE_LINE2":"2 44733  53.0540 103.6713 0002097  63.8009 296.3196 15.06397306146057","ELEMENT_SET_NO":"999","REV_AT_EPOCH":"14605","ECCENTRICITY":"0.00020970","BSTAR":"0.00004014400000"},{"SEMIMAJOR_AXIS":"6925.328","MEAN_ELEMENT_THEORY":"SGP4","APOAPSIS":"548.239","INCLINATION":"53.0567","EPOCH":"2022-07-03T20:01:57.819936","MEAN_MOTION":"15.06406550","MEAN_MOTION_DOT":"0.00001114","CENTER_NAME":"EARTH","NORAD_CAT_ID":"44734","TLE_LINE1":"1 44734U 19074X   22184.83469699  .00001114  00000-0  93668-4 0  9997","GP_ID":"207354905","MEAN_ANOMALY":"282.8855","COUNTRY_CODE":"US","ARG_OF_PERICENTER":"77.2303","TIME_SYSTEM":"UTC","BSTAR":"0.00009366800000","ECCENTRICITY":"0.00015090","TLE_LINE2":"2 44734  53.0567  23.9137 0001509  77.2303 282.8855 15.06406550147149","ELEMENT_SET_NO":"999","REV_AT_EPOCH":"14714","RA_OF_ASC_NODE":"23.9137","CLASSIFICATION_TYPE":"U","OBJECT_NAME":"STARLINK-1029","EPHEMERIS_TYPE":"0","OBJECT_ID":"2019-074X","FILE":"3507292","REF_FRAME":"TEME","LAUNCH_DATE":"2019-11-11","PERIAPSIS":"546.148","OBJECT_TYPE":"PAYLOAD","SITE":"AFETR","PERIOD":"95.592","RCS_SIZE":"LARGE","MEAN_MOTION_DDOT":"0.0000000000000","DECAY_DATE":null},{"LAUNCH_DATE":"2019-11-11","PERIAPSIS":"545.788","OBJECT_TYPE":"PAYLOAD","SITE":"AFETR","RCS_SIZE":"LARGE","MEAN_MOTION_DDOT":"0.0000000000000","PERIOD":"95.592","DECAY_DATE":null,"TIME_SYSTEM":"UTC","TLE_LINE2":"2 44735  53.0564 123.9360 0002042  66.2626 293.8577 15.06403861145766","REV_AT_EPOCH":"14576","ELEMENT_SET_NO":"999","RA_OF_ASC_NODE":"123.9360","BSTAR":"0.00010586000000","ECCENTRICITY":"0.00020420","OBJECT_ID":"2019-074Y","OBJECT_NAME":"STARLINK-1030","EPHEMERIS_TYPE":"0","CLASSIFICATION_TYPE":"U","REF_FRAME":"TEME","FILE":"3507292","TLE_LINE1":"1 44735U 19074Y   22184.82916828  .00001296  00000-0  10586-3 0  9996","GP_ID":"207353669","MEAN_ANOMALY":"293.8577","COUNTRY_CODE":"US","ARG_OF_PERICENTER":"66.2626","SEMIMAJOR_AXIS":"6925.337","MEAN_ELEMENT_THEORY":"SGP4","EPOCH":"2022-07-03T19:54:00.139392","MEAN_MOTION":"15.06403861","APOAPSIS":"548.616","INCLINATION":"53.0564","MEAN_MOTION_DOT":"0.00001296","NORAD_CAT_ID":"44735","CENTER_NAME":"EARTH"},{"TLE_LINE1":"1 44736U 19074Z   22184.84391833  .00001976  00000-0  15148-3 0  9996","GP_ID":"207353919","ARG_OF_PERICENTER":"70.4972","COUNTRY_CODE":"US","MEAN_ANOMALY":"289.6235","INCLINATION":"53.0541","APOAPSIS":"548.582","MEAN_MOTION":"15.06411737","EPOCH":"2022-07-03T20:15:14.543712","MEAN_ELEMENT_THEORY":"SGP4","SEMIMAJOR_AXIS":"6925.313","CENTER_NAME":"EARTH","NORAD_CAT_ID":"44736","MEAN_MOTION_DOT":"0.00001976","PERIAPSIS":"545.773","LAUNCH_DATE":"2019-11-11","DECAY_DATE":null,"RCS_SIZE":"LARGE","PERIOD":"95.591","MEAN_MOTION_DDOT":"0.0000000000000","SITE":"AFETR","OBJECT_TYPE":"PAYLOAD","BSTAR":"0.00015148000000","ECCENTRICITY":"0.00020280","TLE_LINE2":"2 44736  53.0541 123.8758 0002028  70.4972 289.6235 15.06411737145773","RA_OF_ASC_NODE":"123.8758","REV_AT_EPOCH":"14577","ELEMENT_SET_NO":"999","TIME_SYSTEM":"UTC","FILE":"3507292","REF_FRAME":"TEME","CLASSIFICATION_TYPE":"U","EPHEMERIS_TYPE":"0","OBJECT_NAME":"STARLINK-1031","OBJECT_ID":"2019-074Z"},{"CLASSIFICATION_TYPE":"U","OBJECT_NAME":"STARLINK-1032","EPHEMERIS_TYPE":"0","OBJECT_ID":"2019-074AA","FILE":"3507292","REF_FRAME":"TEME","TIME_SYSTEM":"UTC","ECCENTRICITY":"0.00021290","BSTAR":"0.00005729300000","TLE_LINE2":"2 44737  53.0541 123.8239 0002129  63.9547 296.1661 15.06399566145776","REV_AT_EPOCH":"14577","RA_OF_ASC_NODE":"123.8239","ELEMENT_SET_NO":"999","SITE":"AFETR","OBJECT_TYPE":"PAYLOAD","DECAY_DATE":null,"RCS_SIZE":"LARGE","MEAN_MOTION_DDOT":"0.0000000000000","PERIOD":"95.592","LAUNCH_DATE":"2019-11-11","PERIAPSIS":"545.740","MEAN_MOTION_DOT":"0.00000572","CENTER_NAME":"EARTH","NORAD_CAT_ID":"44737","MEAN_ELEMENT_THEORY":"SGP4","SEMIMAJOR_AXIS":"6925.350","INCLINATION":"53.0541","APOAPSIS":"548.689","MEAN_MOTION":"15.06399566","EPOCH":"2022-07-03T20:31:09.239520","MEAN_ANOMALY":"296.1661","ARG_OF_PERICENTER":"63.9547","COUNTRY_CODE":"US","TLE_LINE1":"1 44737U 19074AA  22184.85496805  .00000572  00000-0  57293-4 0  9992","GP_ID":"207354668"},{"OBJECT_TYPE":"PAYLOAD","SITE":"AFETR","RCS_SIZE":"LARGE","PERIOD":"95.592","MEAN_MOTION_DDOT":"0.0000000000000","DECAY_DATE":null,"LAUNCH_DATE":"2019-11-11","PERIAPSIS":"545.663","CLASSIFICATION_TYPE":"U","OBJECT_NAME":"STARLINK-1033","EPHEMERIS_TYPE":"0","OBJECT_ID":"2019-074AB","FILE":"3507292","REF_FRAME":"TEME","TIME_SYSTEM":"UTC","BSTAR":"0.00007201500000","ECCENTRICITY":"0.00022280","TLE_LINE2":"2 44738  53.0551 123.8910 0002228  70.8130 289.3100 15.06402482145762","RA_OF_ASC_NODE":"123.8910","REV_AT_EPOCH":"14576","ELEMENT_SET_NO":"999","MEAN_ANOMALY":"289.3100","COUNTRY_CODE":"US","ARG_OF_PERICENTER":"70.8130","TLE_LINE1":"1 44738U 19074AB  22184.84022677  .00000791  00000-0  72015-4 0  9996","GP_ID":"207354406","MEAN_MOTION_DOT":"0.00000791","CENTER_NAME":"EARTH","NORAD_CAT_ID":"44738","SEMIMAJOR_AXIS":"6925.341","MEAN_ELEMENT_THEORY":"SGP4","APOAPSIS":"548.749","INCLINATION":"53.0551","EPOCH":"2022-07-03T20:09:55.592928","MEAN_MOTION":"15.06402482"},{"EPHEMERIS_TYPE":"0","OBJECT_NAME":"STARLINK-1034","OBJECT_ID":"2019-074AC","CLASSIFICATION_TYPE":"U","REF_FRAME":"TEME","FILE":"3507188","TIME_SYSTEM":"UTC","TLE_LINE2":"2 44739  52.9957 113.8491 0002950  63.3971 296.7323 15.15103920145995","ELEMENT_SET_NO":"999","REV_AT_EPOCH":"14599","RA_OF_ASC_NODE":"113.8491","ECCENTRICITY":"0.00029500","BSTAR":"0.00057980000000","OBJECT_TYPE":"PAYLOAD","SITE":"AFETR","RCS_SIZE":"LARGE","PERIOD":"95.043","MEAN_MOTION_DDOT":"0.0000000000000","DECAY_DATE":null,"LAUNCH_DATE":"2019-11-11","PERIAPSIS":"518.630","MEAN_MOTION_DOT":"0.00010697","NORAD_CAT_ID":"44739","CENTER_NAME":"EARTH","SEMIMAJOR_AXIS":"6898.800","MEAN_ELEMENT_THEORY":"SGP4","EPOCH":"2022-07-03T12:24:56.005632","MEAN_MOTION":"15.15103920","APOAPSIS":"522.700","INCLINATION":"52.9957","MEAN_ANOMALY":"296.7323","COUNTRY_CODE":"US","ARG_OF_PERICENTER":"63.3971","TLE_LINE1":"1 44739U 19074AC  22184.51731488  .00010697  00000-0  57980-3 0  9997","GP_ID":"207325444"},{"TIME_SYSTEM":"UTC","ECCENTRICITY":"0.00017860","BSTAR":"-0.00015015000000","ELEMENT_SET_NO":"999","TLE_LINE2":"2 44740  53.0559 123.8430 0001786  59.6420 300.4745 15.06422038145775","RA_OF_ASC_NODE":"123.8430","REV_AT_EPOCH":"14577","CLASSIFICATION_TYPE":"U","EPHEMERIS_TYPE":"0","OBJECT_NAME":"STARLINK-1035","OBJECT_ID":"2019-074AD","FILE":"3507292","REF_FRAME":"TEME","LAUNCH_DATE":"2019-11-11","PERIAPSIS":"545.909","SITE":"AFETR","OBJECT_TYPE":"PAYLOAD","DECAY_DATE":null,"RCS_SIZE":"LARGE","PERIOD":"95.591","MEAN_MOTION_DDOT":"0.0000000000000","MEAN_ELEMENT_THEORY":"SGP4","SEMIMAJOR_AXIS":"6925.281","INCLINATION":"53.0559","APOAPSIS":"548.383","MEAN_MOTION":"15.06422038","EPOCH":"2022-07-03T20:25:50.761344","MEAN_MOTION_DOT":"-0.00002519","CENTER_NAME":"EARTH","NORAD_CAT_ID":"44740","TLE_LINE1":"1 44740U 19074AD  22184.85128196 -.00002519  00000-0 -15015-3 0  9991","GP_ID":"207353420","MEAN_ANOMALY":"300.4745","ARG_OF_PERICENTER":"59.6420","COUNTRY_CODE":"US"},{"COUNTRY_CODE":"US","ARG_OF_PERICENTER":"71.7686","MEAN_ANOMALY":"288.3498","GP_ID":"207354169","TLE_LINE1":"1 44741U 19074AE  22184.86234303 -.00000135  00000-0  98578-5 0  9999","CENTER_NAME":"EARTH","NORAD_CAT_ID":"44741","MEAN_MOTION_DOT":"-0.00000135","APOAPSIS":"548.441","INCLINATION":"53.0552","EPOCH":"2022-07-03T20:41:46.437792","MEAN_MOTION":"15.06405294","SEMIMAJOR_AXIS":"6925.332","MEAN_ELEMENT_THEORY":"SGP4","RCS_SIZE":"LARGE","PERIOD":"95.592","MEAN_MOTION_DDOT":"0.0000000000000","DECAY_DATE":null,"OBJECT_TYPE":"PAYLOAD","SITE":"AFETR","PERIAPSIS":"545.954","LAUNCH_DATE":"2019-11-11","FILE":"3507292","REF_FRAME":"TEME","CLASSIFICATION_TYPE":"U","OBJECT_NAME":"STARLINK-1036","EPHEMERIS_TYPE":"0","OBJECT_ID":"2019-074AE","ECCENTRICITY":"0.00017960","BSTAR":"0.00000985780000","RA_OF_ASC_NODE":"123.7806","TLE_LINE2":"2 44741  53.0552 123.7806 0001796  71.7686 288.3498 15.06405294145779","ELEMENT_SET_NO":"999","REV_AT_EPOCH":"14577","TIME_SYSTEM":"UTC"}];
